{
  "norad_id": 66478,
  "name": "STARLINK-35283",
  "history": [
    {
      "epoch": "2026-03-28T15:39:55.324224",
      "apogee_km": 484.24133224089655,
      "perigee_km": 481.9392532596321,
      "latitude_deg": 21.063386268602393,
      "longitude_deg": 170.46147135994397,
      "semi_major_axis_km": 6861.227292750264,
      "eccentricity": 0.00016776,
      "inclination_deg": 43.0028,
      "raan_deg": 189.3229,
      "arg_perigee_deg": 268.971,
      "mean_anomaly_deg": 91.095,
      "mean_motion_rev_day": 15.27566242
    },
    {
      "epoch": "2026-03-28T23:30:42.110784",
      "apogee_km": 484.15526847333786,
      "perigee_km": 481.8499255687402,
      "latitude_deg": 43.00215751635262,
      "longitude_deg": -158.15321023995057,
      "semi_major_axis_km": 6861.139597021039,
      "eccentricity": 0.000168,
      "inclination_deg": 43.0031,
      "raan_deg": 187.4757,
      "arg_perigee_deg": 271.084,
      "mean_anomaly_deg": 88.9819,
      "mean_motion_rev_day": 15.27595529
    }
  ]
}